2026-083H
1 68762U 26083H   26108.42314347  .00001569  00000+0  10891-3 0  9995
2 68762  96.9501 248.5707 0011013 253.7113 106.2905 15.06770928   202
