{
  "norad_id": 68762,
  "name": "2026-083H",
  "history": [
    {
      "epoch": "2026-04-18T10:09:19.595808Z",
      "apogee_km": 553.7006541283645,
      "perigee_km": 538.4492464024706,
      "latitude_deg": -1.7964381476510914e-06,
      "longitude_deg": -110.30330522749009,
      "height_km": 551.3071356625469,
      "semi_major_axis_km": 6924.211950265418,
      "eccentricity": 0.00110131,
      "inclination_deg": 96.9501,
      "raan_deg": 248.5707,
      "arg_perigee_deg": 253.7113,
      "mean_anomaly_deg": 106.2905,
      "mean_motion_rev_day": 15.06770928
    }
  ]
}